GLOBALSTAR M045         
1 25676U 99019A   25063.85631265 -.00000070  00000+0  20367-3 0  9994
2 25676  51.9945 242.6353 0000996  76.4415  71.4848 12.27058336180588
GLOBALSTAR M019         
1 25677U 99019B   25064.28910611 -.00000224  00000+0 -13954-2 0  9993
2 25677  51.9911   4.4540 0001457  97.1295  61.0083 12.13872617172716
GLOBALSTAR M044         
1 25678U 99019C   25064.06820044 -.00000068  00000+0  21504-3 0  9996
2 25678  51.9976 303.4079 0005966 193.4866 315.2876 11.90246737158901
GLOBALSTAR M042         
1 25679U 99019D   25063.94928530 -.00000064  00000+0  26654-3 0  9999
2 25679  52.0046 345.2209 0003382  81.2118 358.1166 12.22079430172516
GLOBALSTAR M025         
1 25770U 99031A   25063.93659545 -.00000085  00000+0 -53838-3 0  9999
2 25770  51.9836  40.7724 0001458 339.2628  49.7897 11.22559478470009
GLOBALSTAR M049         
1 25771U 99031B   25063.72646271 -.00000012  00000+0  18351-2 0  9998
2 25771  51.9870  70.7731 0003211 195.2072 164.8628 11.12115657105801
GLOBALSTAR M047         
1 25772U 99031C   25064.47618989 -.00000075  00000+0 -14621-3 0  9994
2 25772  51.9825  75.9530 0016437  85.6322 274.6362 11.31926242134134
GLOBALSTAR M052         
1 25773U 99031D   25063.80782222 -.00000026  00000+0  13460-2 0  9997
2 25773  51.9852 180.7348 0002082  19.8626 104.2607 11.15058164466863
